[{"OBJECT_NAME":"YAOGAN-4","OBJECT_ID":"2008-061A","EPOCH":"2026-03-09T17:16:46.672032","MEAN_MOTION":14.82978423,"ECCENTRICITY":0.00153383,"INCLINATION":97.9248,"RA_OF_ASC_NODE":3.0166,"ARG_OF_PERICENTER":39.2204,"MEAN_ANOMALY":321.0118,"EPHEMERIS_TYPE":0,"CLASSIFICATION_TYPE":"U","NORAD_CAT_ID":33446,"ELEMENT_SET_NO":999,"REV_AT_EPOCH":93092,"BSTAR":0.00022773961,"MEAN_MOTION_DOT":1.799e-5,"MEAN_MOTION_DDOT":0},{"OBJECT_NAME":"COSMOS 2251 DEB","OBJECT_ID":"1993-036CG","EPOCH":"2026-03-09T21:52:20.100000","MEAN_MOTION":14.64723626,"ECCENTRICITY":0.00829102,"INCLINATION":74.0391,"RA_OF_ASC_NODE":38.9327,"ARG_OF_PERICENTER":130.2267,"MEAN_ANOMALY":261.3281,"EPHEMERIS_TYPE":0,"CLASSIFICATION_TYPE":"U","NORAD_CAT_ID":33839,"ELEMENT_SET_NO":999,"REV_AT_EPOCH":90856,"BSTAR":0.00027466487,"MEAN_MOTION_DOT":1.506e-5,"MEAN_MOTION_DDOT":0}]
